[{"OBJECT_NAME":"STARLINK-34346","OBJECT_ID":"2025-112K","EPOCH":"2026-03-09T16:55:02.508096","MEAN_MOTION":15.05649406,"ECCENTRICITY":5.459e-5,"INCLINATION":97.6024,"RA_OF_ASC_NODE":121.585,"ARG_OF_PERICENTER":141.1531,"MEAN_ANOMALY":218.9735,"EPHEMERIS_TYPE":0,"CLASSIFICATION_TYPE":"U","NORAD_CAT_ID":64155,"ELEMENT_SET_NO":999,"REV_AT_EPOCH":4331,"BSTAR":8.4765874e-5,"MEAN_MOTION_DOT":1.163e-5,"MEAN_MOTION_DDOT":0},{"OBJECT_NAME":"CZ-6A DEB","OBJECT_ID":"2022-151AFF","EPOCH":"2026-03-08T15:34:13.969920","MEAN_MOTION":15.07686186,"ECCENTRICITY":0.00385412,"INCLINATION":98.6214,"RA_OF_ASC_NODE":147.2095,"ARG_OF_PERICENTER":177.326,"MEAN_ANOMALY":182.8178,"EPHEMERIS_TYPE":0,"CLASSIFICATION_TYPE":"U","NORAD_CAT_ID":56631,"ELEMENT_SET_NO":999,"REV_AT_EPOCH":15333,"BSTAR":0.0088285077,"MEAN_MOTION_DOT":0.00139408,"MEAN_MOTION_DDOT":0}]
